#dP2024 11  6  0  0  0.00000000     289   u+U IGS20 FIT  GFZ                    
## 2339 259200.00000000   300.00000000 60620 0.0000000000000                    
+  127   C01C02C03C04C05C06C07C08C09C10C11C12C13C14C16C19C20                    
+        C21C22C23C24C25C26C27C28C29C30C32C33C34C35C36C37C38                    
+        C39C40C41C42C43C44C45C48C50C59C62E02E03E04E05E06E07                    
+        E08E09E10E11E12E13E14E15E18E19E21E24E25E26E27E29E30                    
+        E31E33E34E36G02G03G04G05G06G07G08G09G10G11G12G13G14                    
+        G15G16G17G18G19G20G21G22G23G24G25G26G27G28G29G30G31                    
+        G32J02J03J04J07R01R02R03R04R05R07R08R09R11R12R14R15                    
+        R16R17R18R19R20R21R22R24 00 00 00 00 00 00 00 00 00                    
++         0  0  0  0  0  0  0  0  0  0  0  0  0  0  0  0  0                    
++         0  0  0  0  0  0  0  0  0  0  0  0  0  0  0  0  0                    
++         0  0  0  0  0  0  0  0  0  0  0  0  0  0  0  0  0                    
++         0  0  0  0  0  0  0  0  0  0  0  0  0  0  0  0  0                    
++         0  0  0  0  0  0  0  0  0  0  0  0  0  0  0  0  0                    
++         0  0  0  0  0  0  0  0  0  0  0  0  0  0  0  0  0                    
++         0  0  0  0  0  0  0  0  0  0  0  0  0  0  0  0  0                    
++         0  0  0  0  0  0  0  0  0  0  0  0  0  0  0  0  0                    
%c M  cc GPS ccc cccc cccc cccc cccc ccccc ccccc ccccc ccccc                    
%c cc cc ccc ccc cccc cccc cccc cccc ccccc ccccc ccccc ccccc                    
%f  1.2500000  1.025000000  0.00000000000  0.000000000000000                    
%f  0.0000000  0.000000000  0.00000000000  0.000000000000000                    
%i    0    0    0    0      0      0      0      0         0                    
%i    0    0    0    0      0      0      0      0         0                    
/* PCV:IGS20_2335 OL/AL:FES2014b NONE     YN CLK:CoN ORB:CoN                    
/*     GeoForschungsZentrum Potsdam                                             
/*                                                                              
/*                                                                              
*  2024 11  6  4  0  0.00000000                                                 
PC01 -34330.017853  24450.490644     92.094114   -375.835947                    
PC02   4364.740715  41919.526965   1997.423418    803.687633                    
PC03 -14823.142241  39497.996676    626.672404    824.299654                    
PC04 -39577.261803  14433.189501   -441.883923   -485.391691                    
PC05  21955.854427  35991.787969   1534.607989   -233.665082                    
PC06   -761.617261  35195.797237  23499.357119    404.965499                    
PC07 -13783.173185  27317.516849 -28959.923324   -227.797676                    
PC08 -16885.049420  37696.738468   7765.541299   -752.670456                    
PC09   3619.597205  38481.874578  18100.147911   -587.971431                    
PC10  -5963.824437  27908.241308 -30758.950927   -267.389320                    
PC11 -22939.544489  -5822.931524 -14716.060621    229.105028                    
PC12 -20572.085573 -18635.443747   2948.662121   -251.863784                    
PC13 -10986.526009  38106.677168  14023.148303     91.262225                    
PC14 -26093.526103   4926.141717  -8662.362073   -395.750668                    
PC16  -4200.718998  32541.833004  26994.138106    125.296706                    
PC19  25513.695347 -11272.638009   -410.978777   -960.092894                    
PC20  23389.682253   1017.433694  15169.205287   -915.200017                    
PC21  -6749.703065 -14016.513414 -23163.018186   -916.565472                    
PC22  13136.879723 -17938.081787 -16866.138520    171.895217                    
PC23  -7874.853426  25899.206624   6757.309570   -877.847524                    
PC24 -14471.785551 -10314.953668  21502.000944    775.713322                    
PC25 -15604.038947  11332.130750  20147.920182    553.162611                    
PC26  -5262.474890 -25341.916984  10458.587146   -373.199379                    
PC27  14491.885439  20956.603507 -11402.077004    392.439200                    
PC28  -1028.604348  18005.683912 -21284.085308    305.277391                    
PC29  19719.033371  -3157.957454  19491.032877    358.438647                    
PC30  24331.878321  12901.432738   4554.913634     19.544437                    
PC32   6695.504064  14054.466857  23166.225181   -792.622092                    
PC33 -25478.221815  11395.636548    312.309337   -952.455769                    
PC34 -24578.333964 -11634.785138  -6239.979497    558.241283                    
PC35   1131.372300 -17780.218876  21460.508724    215.817471                    
PC36  15768.343616 -11492.525030 -19941.492162    216.339716                    
PC37   4587.298250  25508.325872 -10301.984497   -892.883123                    
PC38 -19658.171639  37201.259002    123.302591    189.599424                    
PC39  -5682.011213  29788.821477  29461.804682    -10.255561                    
PC40 -19754.166615  20645.420437 -31080.403227   -100.892657                    
PC41 -13980.751879  17967.619517  16193.287587   -892.130401                    
PC42 -22399.289691  -2358.103462 -16458.723225   -508.904837                    
PC43 -20370.295549   2396.480673 -18920.882806     91.325728                    
PC44 -15148.069164 -20422.230877  11459.242326    644.052506                    
PC45   8270.985952 -25659.453300  -7273.688534   -161.943640                    
PC48  26068.888442  -4738.412214   8776.197537    867.401386                    
PC50 -15497.378729  -9332.412914 -21250.748127   -764.687379                    
PC59 -32283.409205  27097.156684   1159.006169     -0.840438                    
PC62 -39648.521429  14334.972250   -510.238193      0.175086                    
PE02 -16151.671994  -6738.576233  23865.804566    172.597758                    
PE03 -26440.668861 -10880.295945  -7688.770524   -151.628689                    
PE04  27260.773766  -2437.321732 -11275.400168    -75.323003                    
PE05 -10084.164955 -17473.312989 -21664.179185   4799.301934                    
PE06  21194.951055  -9035.272271 -18607.518393    -44.296957                    
PE07 -12601.549558  13761.937657  22975.930573   -151.314440                    
PE08 -27565.826162   1811.930350  10633.554733   -363.318474                    
PE09  12638.424030 -13602.940588 -23056.538790   -653.016074                    
PE10  11395.680411 -13807.715657  23576.258610   -668.022411                    
PE11   4847.632333 -22895.178801  18118.278924    915.361803                    
PE12  15625.689627  -3882.504749  24841.440682  -1283.119810                    
PE13  -5172.353057  22475.638882 -18544.029216    -26.504578                    
PE14 -21670.440950 -15548.116149  13225.717134    353.566309                    
PE15 -15785.072714   3053.379263 -24840.586090   -137.449902                    
PE18   8809.349322  17758.848632 -18311.267147    741.007357                    
PE19  25408.666114  11949.585769   9375.789427    890.727050                    
PE21    -81.115270  21347.645953 -20503.082886   -626.691727                    
PE24  16939.838274 -23801.701911   4830.577591  -1083.780650                    
PE25    508.200061 -21577.055529  20265.206598     10.929264                    
PE26   8568.415580  28308.736536  -1048.719633   -219.728798                    
PE27 -16804.573373  23854.643998  -4932.413981   -496.798927                    
PE29  10465.536071  17598.859688  21370.559792    -43.431101                    
PE30 -23450.350566  12250.699755  13248.147479   -895.799316                    
PE31  23403.722238 -12277.334908 -13332.386615    -41.899088                    
PE33  16861.402386  18207.598403  16135.827564     16.058049                    
PE34 -16986.706765 -17824.462964 -16436.941324   -144.295021                    
PE36  -8221.341838 -28391.572486   1585.807160   -307.220576                    
PG02  17843.037566   5087.957425  19606.781863   -320.931822                    
PG03  19508.753232  -7868.720788  15982.068573    591.969613                    
PG04  25904.963434     36.708649  -6200.210697    474.593330                    
PG05 -12890.183421  -7737.371032 -22076.603911   -192.113482                    
PG06  -4286.638773 -24984.657772   7805.822442    -92.984718                    
PG07  10728.774486 -12212.352005 -20386.271515    -21.962542                    
PG08  25359.426663   6559.354114  -5771.931767    405.727925                    
PG09  20915.891183  -7943.711562 -14455.435213    430.999910                    
PG10  -8052.141598  22572.468222  11287.566222   -185.158806                    
PG11 -12608.955128 -22582.376592  -6147.114738   -748.696957                    
PG12 -19127.549319   2750.929754  17916.490778   -550.170197                    
PG13 -19780.097714 -13814.785321 -11603.748266    684.804538                    
PG14  11360.551331 -22697.931815   7454.854965    533.665971                    
PG15 -25824.945659  -3701.603867  -5916.529531    224.403214                    
PG16   8900.094108  12814.073123 -21797.847591   -135.743187                    
PG17   6006.240403 -14304.886206  21990.996468    569.341049                    
PG18  -9396.209474  14041.525488 -20406.394121   -659.906010                    
PG19  -5750.769183 -15924.245214  20425.102627    559.390660                    
PG20  -5474.348378 -18079.479456 -18651.444243    368.994195                    
PG21  18706.617524  11814.725792  15834.394988     98.126398                    
PG22   5752.182280 -21623.790499  14941.148445    -77.181686                    
PG23 -16667.243439  20396.291626  -2193.533710    357.273059                    
PG24 -18481.569804  -7437.484567  17295.934918   -481.761609                    
PG25 -19305.175702  15586.682813   8752.226653    499.189289                    
PG26    720.331827  21065.479641 -16100.594038     35.901257                    
PG27  18270.823863  12843.500295 -14993.860201    -34.745647                    
PG28   3605.347322  24474.685542   9649.070268   -469.985372                    
PG29 -22226.104372   5002.784773 -13799.431347   -565.922304                    
PG30   2972.324692 -21551.802615 -14906.524771   -287.723699                    
PG31  10577.148764  24096.865273  -1668.561978   -222.243319                    
PG32  -2040.645658  15136.678327  21947.793097   -577.572974                    
PJ02 -35350.885395  22763.740541    835.429634      0.449340                    
PJ03 -20350.058824  23242.284630 -24047.398768     -6.066048                    
PJ04 -28820.597752  29655.460840  14387.580375     21.744004                    
PJ07 -25376.324413  33662.222507     46.902203      0.011958                    
PR01 -19644.099958  -2693.965821 -16053.954238    103.485736                    
PR02 -24875.727006   5461.337780    -32.470432    -25.516063                    
PR03 -16040.187467  11474.446657  16178.217599    110.826864                    
PR04    996.561026  10709.867447  23152.439350    262.673619                    
PR05  17693.039578   4564.538098  17819.557896    140.272993                    
PR07  15809.759064 -11495.272711 -16387.405356     94.410966                    
PR08  -1317.561731 -10742.741817 -23043.960209     -6.309793                    
PR09  12718.397259  -8497.118764 -20370.515808    218.899581                    
PR11   2913.244643 -23941.410680   8288.276961      7.545934                    
PR12  -7664.652011 -10850.729581  21799.762689     46.907572                    
PR14 -10204.635663  22149.401514   7522.776935     27.168055                    
PR15  -2060.860486  23427.720038  -9869.573932     74.388249                    
PR16   7461.412240  10986.608740 -21778.151333     30.559407                    
PR17  -3507.045350  11447.666603 -22501.032722    137.324538                    
PR18   9593.264251  19628.182754 -13180.306998    170.492675                    
PR19  16769.585912  19187.375310   1015.627079   -297.457349                    
PR20  15695.909242   5137.818824  19468.129009   -121.510301                    
PR21   4269.218828 -10718.722032  22760.682298   -148.924513                    
PR22  -9772.645984 -20218.725611  12124.242720     -1.283926                    
PR24 -15991.300092  -3681.782355 -19513.248731    -78.980142                    
EOF                                     
